$$SOE
2461281.500000000, A.D. 2026-Aug-29 00:00:00.0000, -6.500985706778162E+09, -6.257866883154409E+09, 3.531156686911914E+09,
2461288.500000000, A.D. 2026-Sep-05 00:00:00.0000, -6.499472600655774E+09, -6.258957072809360E+09, 3.531634287548741E+09,
2461295.500000000, A.D. 2026-Sep-12 00:00:00.0000, -6.497959118712490E+09, -6.260046977386011E+09, 3.532111699323656E+09,
2461302.500000000, A.D. 2026-Sep-19 00:00:00.0000, -6.496445262571810E+09, -6.261136597793694E+09, 3.532588922355916E+09,
2461309.500000000, A.D. 2026-Sep-26 00:00:00.0000, -6.494931033478794E+09, -6.262225935523920E+09, 3.533065956716699E+09,
2461316.500000000, A.D. 2026-Oct-03 00:00:00.0000, -6.493416432229835E+09, -6.263314992415047E+09, 3.533542802438783E+09,
2461323.500000000, A.D. 2026-Oct-10 00:00:00.0000, -6.491901459188983E+09, -6.264403770509566E+09, 3.534019459525666E+09,
2461330.500000000, A.D. 2026-Oct-17 00:00:00.0000, -6.490386114339251E+09, -6.265492271985004E+09, 3.534495927957026E+09,
2461337.500000000, A.D. 2026-Oct-24 00:00:00.0000, -6.488870397344443E+09, -6.266580499180851E+09, 3.534972207686527E+09,
2461344.500000000, A.D. 2026-Oct-31 00:00:00.0000, -6.487354307522786E+09, -6.267668454788255E+09, 3.535448298617590E+09,
2461351.500000000, A.D. 2026-Nov-07 00:00:00.0000, -6.485837843393289E+09, -6.268756142128328E+09, 3.535924200532259E+09,
2461358.500000000, A.D. 2026-Nov-14 00:00:00.0000, -6.484321001593938E+09, -6.269843564631670E+09, 3.536399913027424E+09,
2461365.500000000, A.D. 2026-Nov-21 00:00:00.0000, -6.482803776983481E+09, -6.270930723837237E+09, 3.536875435680591E+09,
2461372.500000000, A.D. 2026-Nov-28 00:00:00.0000, -6.481286164924941E+09, -6.272017618918601E+09, 3.537350768291108E+09,
2461379.500000000, A.D. 2026-Dec-05 00:00:00.0000, -6.479768162131229E+09, -6.273104248393933E+09, 3.537825910811569E+09,
2461386.500000000, A.D. 2026-Dec-12 00:00:00.0000, -6.478249765908034E+09, -6.274190610908738E+09, 3.538300863208766E+09,
2461393.500000000, A.D. 2026-Dec-19 00:00:00.0000, -6.476730973681174E+09, -6.275276705084907E+09, 3.538775625428089E+09,
2461400.500000000, A.D. 2026-Dec-26 00:00:00.0000, -6.475211782950894E+09, -6.276362529304167E+09, 3.539250197403719E+09,
2461407.500000000, A.D. 2027-Jan-02 00:00:00.0000, -6.473692191397491E+09, -6.277448081616955E+09, 3.539724579073851E+09,
2461414.500000000, A.D. 2027-Jan-09 00:00:00.0000, -6.472172197021973E+09, -6.278533359756731E+09, 3.540198770392049E+09,
2461421.500000000, A.D. 2027-Jan-16 00:00:00.0000, -6.470651798287427E+09, -6.279618361251110E+09, 3.540672771332233E+09,
2461428.500000000, A.D. 2027-Jan-23 00:00:00.0000, -6.469130994216560E+09, -6.280703083669673E+09, 3.541146581879899E+09,
2461435.500000000, A.D. 2027-Jan-30 00:00:00.0000, -6.467609784259233E+09, -6.281787525056396E+09, 3.541620201988398E+09,
2461442.500000000, A.D. 2027-Feb-06 00:00:00.0000, -6.466088167506949E+09, -6.282871684206861E+09, 3.542093631489028E+09,
2461449.500000000, A.D. 2027-Feb-13 00:00:00.0000, -6.464566141716137E+09, -6.283955559570661E+09, 3.542566870096685E+09,
2461456.500000000, A.D. 2027-Feb-20 00:00:00.0000, -6.463043704505444E+09, -6.285039147570118E+09, 3.543039917663084E+09,
2461463.500000000, A.D. 2027-Feb-27 00:00:00.0000, -6.461520855332054E+09, -6.286122443549046E+09, 3.543512774286665E+09,
2461470.500000000, A.D. 2027-Mar-06 00:00:00.0000, -6.459997595229557E+09, -6.287205443428952E+09, 3.543985440159316E+09,
2461477.500000000, A.D. 2027-Mar-13 00:00:00.0000, -6.458473925907877E+09, -6.288288144023288E+09, 3.544457915463953E+09,
2461484.500000000, A.D. 2027-Mar-20 00:00:00.0000, -6.456949849344870E+09, -6.289370542844331E+09, 3.544930200358171E+09,
2461491.500000000, A.D. 2027-Mar-27 00:00:00.0000, -6.455425367667572E+09, -6.290452637951679E+09, 3.545402294980420E+09,
2461498.500000000, A.D. 2027-Apr-03 00:00:00.0000, -6.453900483120248E+09, -6.291534427890087E+09, 3.545874199456104E+09,
2461505.500000000, A.D. 2027-Apr-10 00:00:00.0000, -6.452375198057960E+09, -6.292615911693563E+09, 3.546345913899780E+09,
2461512.500000000, A.D. 2027-Apr-17 00:00:00.0000, -6.450849514943616E+09, -6.293697088970059E+09, 3.546817438410236E+09,
2461519.500000000, A.D. 2027-Apr-24 00:00:00.0000, -6.449323436269253E+09, -6.294777960128906E+09, 3.547288773046045E+09,
2461526.500000000, A.D. 2027-May-01 00:00:00.0000, -6.447796964101941E+09, -6.295858526723186E+09, 3.547759917756427E+09,
2461533.500000000, A.D. 2027-May-08 00:00:00.0000, -6.446270098946914E+09, -6.296938791158635E+09, 3.548230872300349E+09,
2461540.500000000, A.D. 2027-May-15 00:00:00.0000, -6.444742839424778E+09, -6.298018754815666E+09, 3.548701636369129E+09,
2461547.500000000, A.D. 2027-May-22 00:00:00.0000, -6.443215184326699E+09, -6.299098417176097E+09, 3.549172209844191E+09,
2461554.500000000, A.D. 2027-May-29 00:00:00.0000, -6.441687133691607E+09, -6.300177777422829E+09, 3.549642592762249E+09,
2461561.500000000, A.D. 2027-Jun-05 00:00:00.0000, -6.440158688020590E+09, -6.301256835380764E+09, 3.550112785162830E+09,
2461568.500000000, A.D. 2027-Jun-12 00:00:00.0000, -6.438629847636019E+09, -6.302335591367132E+09, 3.550582787037602E+09,
2461575.500000000, A.D. 2027-Jun-19 00:00:00.0000, -6.437100612516400E+09, -6.303414045886242E+09, 3.551052598335653E+09,
2461582.500000000, A.D. 2027-Jun-26 00:00:00.0000, -6.435570982327566E+09, -6.304492199429998E+09, 3.551522218977888E+09,
2461589.500000000, A.D. 2027-Jul-03 00:00:00.0000, -6.434040956518055E+09, -6.305570052375850E+09, 3.551991648869322E+09,
2461596.500000000, A.D. 2027-Jul-10 00:00:00.0000, -6.432510534441844E+09, -6.306647604973472E+09, 3.552460887906850E+09,
2461603.500000000, A.D. 2027-Jul-17 00:00:00.0000, -6.430979715472086E+09, -6.307724857459035E+09, 3.552929935976231E+09,
2461610.500000000, A.D. 2027-Jul-24 00:00:00.0000, -6.429448498949437E+09, -6.308801810359867E+09, 3.553398792919042E+09,
2461617.500000000, A.D. 2027-Jul-31 00:00:00.0000, -6.427916883553520E+09, -6.309878464753984E+09, 3.553867458451362E+09,
2461624.500000000, A.D. 2027-Aug-07 00:00:00.0000, -6.426384866298259E+09, -6.310954821332781E+09, 3.554335932146873E+09,
2461631.500000000, A.D. 2027-Aug-14 00:00:00.0000, -6.424852443452212E+09, -6.312030878520185E+09, 3.554804213674871E+09,
2461638.500000000, A.D. 2027-Aug-21 00:00:00.0000, -6.423319612765668E+09, -6.313106633012441E+09, 3.555272302961555E+09,
2461645.500000000, A.D. 2027-Aug-28 00:00:00.0000, -6.421786373573456E+09, -6.314182081535336E+09, 3.555740200058230E+09,
2461652.500000000, A.D. 2027-Sep-04 00:00:00.0000, -6.420252725954611E+09, -6.315257221316530E+09, 3.556207905029134E+09,
2461659.500000000, A.D. 2027-Sep-11 00:00:00.0000, -6.418718670344208E+09, -6.316332049934328E+09, 3.556675417932605E+09,
2461666.500000000, A.D. 2027-Sep-18 00:00:00.0000, -6.417184207464182E+09, -6.317406565192935E+09, 3.557142738830001E+09,
2461673.500000000, A.D. 2027-Sep-25 00:00:00.0000, -6.415649338344275E+09, -6.318480765101608E+09, 3.557609867794769E+09,
2461680.500000000, A.D. 2027-Oct-02 00:00:00.0000, -6.414114064358038E+09, -6.319554647929815E+09, 3.558076804916779E+09,
2461687.500000000, A.D. 2027-Oct-09 00:00:00.0000, -6.412578387251376E+09, -6.320628212342495E+09, 3.558543550299223E+09,
2461694.500000000, A.D. 2027-Oct-16 00:00:00.0000, -6.411042309100374E+09, -6.321701457669877E+09, 3.559010104037590E+09,
2461701.500000000, A.D. 2027-Oct-23 00:00:00.0000, -6.409505831938378E+09, -6.322774384317175E+09, 3.559476466156227E+09,
2461708.500000000, A.D. 2027-Oct-30 00:00:00.0000, -6.407968956677511E+09, -6.323846993703450E+09, 3.559942636517837E+09,
2461715.500000000, A.D. 2027-Nov-06 00:00:00.0000, -6.406431682487913E+09, -6.324919286601244E+09, 3.560408614904737E+09,
2461722.500000000, A.D. 2027-Nov-13 00:00:00.0000, -6.404894008620103E+09, -6.325991261952943E+09, 3.560874401284216E+09,
2461729.500000000, A.D. 2027-Nov-20 00:00:00.0000, -6.403355935768499E+09, -6.327062918349608E+09, 3.561339995813204E+09,
2461736.500000000, A.D. 2027-Nov-27 00:00:00.0000, -6.401817465358554E+09, -6.328134255207654E+09, 3.561805398676169E+09,
2461743.500000000, A.D. 2027-Dec-04 00:00:00.0000, -6.400278598780985E+09, -6.329205272729385E+09, 3.562270610016578E+09,
2461750.500000000, A.D. 2027-Dec-11 00:00:00.0000, -6.398739337123703E+09, -6.330275971611288E+09, 3.562735629933673E+09,
2461757.500000000, A.D. 2027-Dec-18 00:00:00.0000, -6.397199681126473E+09, -6.331346352839061E+09, 3.563200458491738E+09,
2461764.500000000, A.D. 2027-Dec-25 00:00:00.0000, -6.395659631206269E+09, -6.332416417571459E+09, 3.563665095727781E+09,
2461771.500000000, A.D. 2028-Jan-01 00:00:00.0000, -6.394119187511941E+09, -6.333486167098246E+09, 3.564129541655176E+09,
$$EOE